{"type":"FeatureCollection","features":[{"type":"Feature","properties":{"Plaza San Martin":""},"geometry":{"coordinates":[-58.173473467513844,-26.186272583931576],"type":"Point"},"id":0},{"type":"Feature","properties":{"Mastil Municipal":""},"geometry":{"coordinates":[-58.16393700327396,-26.182137168029612],"type":"Point"},"id":1},{"type":"Feature","properties":{"Hospital de Alta Complejidad \"Pte. Juan Domingo Perón”":""},"geometry":{"coordinates":[-58.1872209039732,-26.179499376410675],"type":"Point"},"id":2},{"type":"Feature","properties":{"Club Deportivo La Paz":""},"geometry":{"coordinates":[-58.20225644008515,-26.16737257936488],"type":"Point"},"id":3},{"type":"Feature","properties":{"Planta termoelectrica generadora APR ENERGY FORMOSA":""},"geometry":{"coordinates":[-58.210398835797875,-26.175511731315027],"type":"Point"},"id":4},{"type":"Feature","properties":{"Centro de Detencion San Antonio":""},"geometry":{"coordinates":[-58.21324967503992,-26.168424094877714],"type":"Point"},"id":5},{"type":"Feature","properties":{"Lisabel Rivira":""},"geometry":{"coordinates":[-58.22413719641659,-26.16728245063502],"type":"Point"},"id":6},{"type":"Feature","properties":{},"geometry":{"coordinates":[[-58.17347350378219,-26.18627080842495],[-58.17336658160917,-26.186216655873785],[-58.17302943181551,-26.18610258099143],[-58.163596712117766,-26.18302074671616],[-58.163940274548224,-26.182131582339288],[-58.16404610716799,-26.181927870304015],[-58.16736547328075,-26.173622281286406],[-58.16743246962824,-26.173497692922396],[-58.16752354339465,-26.173429407723788],[-58.167618075658396,-26.173384918861203],[-58.1678198213431,-26.173393195859724],[-58.16814146160648,-26.173485277435077],[-58.16841736209568,-26.173622357769005],[-58.16862487194338,-26.173809624346866],[-58.16877743919541,-26.173877318397032],[-58.169089856799005,-26.17397664192753],[-58.16975727617677,-26.174198018280606],[-58.17754135523215,-26.17674024606771],[-58.17762242484058,-26.17676296290597],[-58.17777936522097,-26.176767506266437],[-58.17791605522872,-26.176809910951],[-58.17815062203283,-26.17689017691677],[-58.18214229991888,-26.178170967351527],[-58.186148496587734,-26.17949637580533],[-58.18684751181374,-26.179727042932527],[-58.18705226959855,-26.17978489592494],[-58.187118872826346,-26.17974811396543],[-58.1871844513893,-26.179670871812483],[-58.187219289999945,-26.179549491183607],[-58.187225437989994,-26.17949891588502],[-58.1877852792617,-26.178168429177035],[-58.18842249012121,-26.176574393074667],[-58.190615312984406,-26.171153042095362],[-58.19096686939915,-26.17032122674525],[-58.19310592757343,-26.16501295925749],[-58.193349913066015,-26.16434037406141],[-58.19384822409296,-26.163068395490136],[-58.194493460008985,-26.161444962915333],[-58.19449612425814,-26.161291918927844],[-58.194437510779565,-26.161201048965104],[-58.19415776463124,-26.161081483116412],[-58.19398458844405,-26.160911699402398],[-58.19383805689678,-26.160725818524007],[-58.19365155946434,-26.160656470064822],[-58.19356097499765,-26.160596686876744],[-58.19349436877155,-26.160484294399858],[-58.19349170452237,-26.16039342380909],[-58.19353166825802,-26.160326466485536],[-58.193616924227044,-26.16029298780886],[-58.193715501441275,-26.1602858138057],[-58.19387002788494,-26.16034320581916],[-58.19408316780779,-26.160352771152574],[-58.19428298648481,-26.160345597153167],[-58.19449612640766,-26.16030494448001],[-58.19526076587968,-26.16066842669764],[-58.19671365683817,-26.16158249973519],[-58.19723196938287,-26.162013591757272],[-58.19764474986805,-26.162451039339835],[-58.19812697894321,-26.16302733883216],[-58.198489295679224,-26.163491204138943],[-58.19873174234171,-26.163792503616087],[-58.19898218175041,-26.164055542205965],[-58.19924327815582,-26.164318580202703],[-58.1995123673081,-26.164569661373307],[-58.20018375456935,-26.16523921101416],[-58.20038890174469,-26.165478334064254],[-58.20080452055478,-26.1659278861814],[-58.201118901941086,-26.166265047547476],[-58.20181361270977,-26.166980811494504],[-58.20206671636765,-26.167231886933287],[-58.20224255680404,-26.16737774955913],[-58.202561193128346,-26.167828986483194],[-58.20439311128261,-26.16979874028818],[-58.205225212062814,-26.17066621811089],[-58.20583029307387,-26.171324916639072],[-58.20656423392988,-26.17232049971551],[-58.207348571640196,-26.173587616400958],[-58.20770153556363,-26.174236242236624],[-58.20851921405773,-26.175704234060767],[-58.20942188190787,-26.177260609178262],[-58.209550741752864,-26.177280721028815],[-58.20971881981151,-26.177235469362657],[-58.210396734647745,-26.175510864988468],[-58.21134384726929,-26.17322221942959],[-58.21219725851037,-26.171125734027576],[-58.213080894547076,-26.168890000766517],[-58.21325266590581,-26.168409615471298],[-58.21489459372208,-26.16435536734425],[-58.215087248139355,-26.164422736287833],[-58.22413447301268,-26.167289847617155]],"type":"LineString"}}]}