{"type":"FeatureCollection","features":[{"type":"Feature","properties":{},"geometry":{"coordinates":[[-58.16735915279709,-26.185403055297378],[-58.168711160905886,-26.185851850207335],[-58.16880920226929,-26.1858866477598],[-58.16840456952242,-26.18688336457381],[-58.167975027188064,-26.187940956668058],[-58.16815282002415,-26.18798525804649]],"type":"LineString"}},{"type":"Feature","properties":{},"geometry":{"coordinates":[[-58.16816155229384,-26.18798742434535],[-58.16912374165133,-26.1882891913718],[-58.16961971951419,-26.18845727646164],[-58.1702093183909,-26.188654268206378],[-58.17029459904781,-26.188678689164462],[-58.17076505984575,-26.188832328682885],[-58.1712579271109,-26.18899110601793],[-58.171499100809854,-26.189069927702327],[-58.17189089818412,-26.1891988827945],[-58.17225031329987,-26.189315448545344],[-58.172502811206314,-26.189399261761118],[-58.17269971112303,-26.1894652759538],[-58.17305930267865,-26.18958488097381],[-58.173344035960326,-26.189677289627802],[-58.17366640144789,-26.189779888818556],[-58.17389084877669,-26.189852161091864],[-58.17400157986691,-26.189888916596196],[-58.174297449943154,-26.189985838974565],[-58.17462348617626,-26.19009293072323],[-58.175032786252956,-26.190229956433797],[-58.175062514801795,-26.19023975356442],[-58.17530852231823,-26.18961127871154],[-58.17545504774024,-26.189246219712103],[-58.17559482344443,-26.18889599836276],[-58.17581670084154,-26.188352751786674],[-58.17588510853932,-26.188179437347067],[-58.176006531355966,-26.187866760709177],[-58.176081920531544,-26.18766114929535],[-58.176177295498434,-26.187427423967826],[-58.17627198578272,-26.18719658643392],[-58.17642529723456,-26.18681956200183],[-58.17659280432831,-26.186405550282814],[-58.176688585622415,-26.186171031273886],[-58.176774402364686,-26.18595645036317],[-58.17684581451633,-26.185921881980235],[-58.17767310198292,-26.18618610727294],[-58.17797523048472,-26.186282203455995],[-58.17847052832377,-26.18644200764912],[-58.1790512309873,-26.18663062603548],[-58.18017666217963,-26.186996144614078],[-58.181279121832645,-26.187349940038764],[-58.182425316461476,-26.187723748757698],[-58.18349388172639,-26.188073814865895],[-58.18422665091387,-26.188313026533407],[-58.185124567212256,-26.188612890023812],[-58.18615770596698,-26.188955827945023],[-58.18721374530671,-26.18930953300555],[-58.18821135605242,-26.189633537361786],[-58.18887459516718,-26.18984078878863],[-58.18967764643318,-26.19010306986965],[-58.19039883956505,-26.19033557455039],[-58.19076398401006,-26.19044921655157],[-58.19127639967189,-26.190607259759496],[-58.191409581681,-26.190646918451428],[-58.19152236440743,-26.19067391825591],[-58.19163596654671,-26.190677617583525],[-58.19186927084763,-26.190701615807903],[-58.19281264540592,-26.191004080863365],[-58.19347816234914,-26.19121841216552],[-58.19453729014448,-26.191565816272735],[-58.19604411953205,-26.192043810143446],[-58.19681880067084,-26.192293441556544],[-58.19776815869838,-26.192605095831837],[-58.19894727115799,-26.192989806999698],[-58.200233770828305,-26.193410382541096],[-58.201624182444746,-26.193863645595393],[-58.20291417178338,-26.194275311741563],[-58.203837179717254,-26.194564570548614],[-58.2046057939406,-26.19480989004432],[-58.205439457164616,-26.195070611727424],[-58.20611440928863,-26.19528990238112],[-58.206828713694506,-26.195524378921],[-58.20790772142114,-26.195872794389537],[-58.20860710913156,-26.19610356585585],[-58.20984907082217,-26.196509953308087],[-58.21107105514109,-26.196899635174724],[-58.21159854332946,-26.19707005006233],[-58.21192125189249,-26.197176169991238],[-58.21210572900202,-26.197208271415597],[-58.21225071469743,-26.197232177735813],[-58.21270350778342,-26.197374894082884],[-58.21334235962067,-26.19758912436552],[-58.213629767038384,-26.197690692041448],[-58.213850018472016,-26.19790457568684],[-58.214123205446356,-26.198118185525637],[-58.214409809624954,-26.198219940766123],[-58.21452102294084,-26.198230665019835],[-58.21462050447218,-26.198169107819645],[-58.21465506001725,-26.198109870575372],[-58.214901463583274,-26.197481312710906],[-58.21524983965227,-26.196603003983633],[-58.21538374443725,-26.19627298803306],[-58.21544995578819,-26.196105532464358],[-58.21560270326171,-26.195720875589004],[-58.21582943167627,-26.195179071709497],[-58.21607408501076,-26.19456739447397],[-58.21624920500459,-26.194130621648235],[-58.216511149731346,-26.193493867075944],[-58.2167124805288,-26.1929797713355],[-58.2171497043317,-26.19192527817618],[-58.217625437062395,-26.1907393255061],[-58.21790296858404,-26.190046081562997],[-58.21796113590459,-26.189885115385742],[-58.2180093827012,-26.18984672818928],[-58.218124902833736,-26.189868654562133],[-58.21898345244003,-26.190151892814903],[-58.21998569354693,-26.190476048554537],[-58.22128933371016,-26.190902730738088],[-58.22201714636597,-26.191149729785757],[-58.222725181513354,-26.191367144660553],[-58.22345418904132,-26.19160139187573],[-58.22406127234552,-26.191797637315545],[-58.224469100937554,-26.191927857287816],[-58.22484445197793,-26.192050589206843],[-58.225525631871236,-26.19227416561916],[-58.22585714549089,-26.191520045986586],[-58.226239052570435,-26.190584086579705],[-58.22641769956289,-26.19013580643358],[-58.22673155741262,-26.18934925776248],[-58.226945598251376,-26.188811861006677],[-58.22715968250412,-26.18826858053753],[-58.22748249450214,-26.187458375139947],[-58.22781637429745,-26.18659591454076],[-58.22793638539302,-26.18629046916358],[-58.228027437928176,-26.186113384459496],[-58.22817407534325,-26.185725306453328],[-58.22844723381357,-26.185032230852975],[-58.22868798323799,-26.184375351729578],[-58.22875246517158,-26.18420769835773],[-58.22881654896359,-26.184036678166642],[-58.228892078521866,-26.18387685182679],[-58.22891701992094,-26.18374889163993],[-58.22886246182095,-26.18366821917504],[-58.228822146503006,-26.18355932052763],[-58.22887924281797,-26.18347171640489],[-58.22895534221766,-26.183363273507297],[-58.22902998810687,-26.18323432210925],[-58.22920914717653,-26.182812128971364],[-58.22945385169524,-26.18217305461644],[-58.2296601630956,-26.1816721597011],[-58.2297493082411,-26.18163034636455],[-58.23061405357143,-26.18191644491789],[-58.23119538167816,-26.182110086140753],[-58.23215800111164,-26.18242834482495],[-58.23316058577312,-26.182750237532865],[-58.23356950598547,-26.182883273032438],[-58.23398829656955,-26.18302969677689],[-58.23500391367526,-26.18337331916817],[-58.2351809030222,-26.183432071356144],[-58.2353073313499,-26.183127218412736],[-58.2354902942981,-26.182665011695768],[-58.235581254512255,-26.182434471250048],[-58.23575389909966,-26.181993271239143],[-58.235870265283125,-26.181695459492026],[-58.236053711850786,-26.181219458576976],[-58.23631480964278,-26.180521435987913],[-58.23649386534936,-26.18011923514262],[-58.23682360217522,-26.179292624455883],[-58.237169306553625,-26.178435388939377],[-58.23752756986757,-26.177551794661625],[-58.23783456089622,-26.176798734310786],[-58.23809190324695,-26.176130815522477],[-58.238380076495176,-26.17540881863998],[-58.23864416353297,-26.174736950589867],[-58.23878296213397,-26.17438606694158],[-58.238922093472695,-26.174022894852214],[-58.23915204359787,-26.1734385305134],[-58.23938507708979,-26.172842940929755],[-58.23950910345333,-26.1725238405539]],"type":"LineString"}},{"type":"Feature","properties":{},"geometry":{"coordinates":[-58.239535308635936,-26.172530012689847],"type":"Point"}},{"type":"Feature","properties":{},"geometry":{"coordinates":[-58.23542462972321,-26.182782892465127],"type":"Point"}},{"type":"Feature","properties":{},"geometry":{"coordinates":[-58.22806406877312,-26.18589047037098],"type":"Point"}},{"type":"Feature","properties":{},"geometry":{"coordinates":[-58.20552709774475,-26.19505663066002],"type":"Point"}},{"type":"Feature","properties":{},"geometry":{"coordinates":[-58.199883416003104,-26.193264720004635],"type":"Point"}},{"type":"Feature","properties":{},"geometry":{"coordinates":[-58.19452310170222,-26.191502343331727],"type":"Point"}},{"type":"Feature","properties":{},"geometry":{"coordinates":[-58.16733927817772,-26.18536614068031],"type":"Point"}},{"type":"Feature","properties":{},"geometry":{"coordinates":[-58.1682817584348,-26.18796542832837],"type":"Point"}}]}