{"type":"FeatureCollection","features":[{"type":"Feature","properties":{"Barrio San Jorge":""},"geometry":{"coordinates":[-58.206406999272005,-26.21307968964139],"type":"Point"},"id":2},{"type":"Feature","properties":{"nombre":"Línea F - Vuelta"},"geometry":{"type":"LineString","coordinates":[[-58.206222634718486,-26.212897408087535],[-58.206473732445716,-26.21232508748536],[-58.20646015959514,-26.21211198867087],[-58.207973008599296,-26.208294342788186],[-58.208005856900826,-26.208216818659714],[-58.207982122422095,-26.20813696441838],[-58.204972247978475,-26.207150916351786],[-58.205763010686994,-26.205105149638605],[-58.20593366196002,-26.20465286920244],[-58.206235150671205,-26.203901866533542],[-58.20666046077332,-26.202848198476943],[-58.20704678849857,-26.201808311915137],[-58.20786847931116,-26.19978516992073],[-58.20860717593985,-26.197886144917533],[-58.20900569668491,-26.196865562092107],[-58.20637271339254,-26.1960215719346],[-58.204566974262136,-26.1954557791149],[-58.20359109353433,-26.195129264605775],[-58.20299564088651,-26.19486211568993],[-58.20264002333265,-26.19466175360084],[-58.20219343384677,-26.19446139116789],[-58.199425573507654,-26.193569205979593],[-58.195997474456206,-26.192459140980873],[-58.19401263229767,-26.191813515251262],[-58.193468259173,-26.191625919286523],[-58.192724900386935,-26.193550877014736],[-58.19221214949606,-26.194864368071165],[-58.19156332150723,-26.196417073409677],[-58.190618813712035,-26.19878449384371],[-58.19018968196218,-26.199894983228496],[-58.18703874304367,-26.198870951139426],[-58.181283206689955,-26.197010172088973],[-58.18072333058184,-26.196826765415132],[-58.18021234609236,-26.19679619890394],[-58.17113924412385,-26.193872328275766],[-58.170822411787626,-26.193757669747257],[-58.172149453409816,-26.190497804777856],[-58.17328902951975,-26.187685234674383],[-58.17366107034711,-26.18650122787904],[-58.173710941214125,-26.18636056467831],[-58.172615969557384,-26.186007236432168],[-58.17343319791273,-26.18390228575997],[-58.17350566624778,-26.183705995436497],[-58.17363691285077,-26.18369926523178],[-58.174660636351234,-26.18403914010559],[-58.17533890299096,-26.18234537937642],[-58.17586332939709,-26.18103881899784],[-58.176110495637204,-26.18040002024786],[-58.176468191210205,-26.17950856579452],[-58.17688444397925,-26.178468719511443],[-58.17729318335519,-26.177438946270406],[-58.1774843725706,-26.17692064086478],[-58.177540621114616,-26.176799490058812],[-58.17763436868772,-26.176678339126966],[-58.178244409297506,-26.175186275871212],[-58.178836058146516,-26.173691530999164],[-58.17928135171185,-26.17256240923546],[-58.17939577438496,-26.17232855666593],[-58.17904328350933,-26.17220403565313],[-58.17891203690634,-26.172089610822105],[-58.179791039313855,-26.1698130933162],[-58.180468760976154,-26.1680754173504],[-58.180555259263855,-26.16785997887019],[-58.180705255381014,-26.16784651663042],[-58.18097149848967,-26.1679441178403],[-58.181293990141555,-26.167442648687498],[-58.18147398548244,-26.167180133774465],[-58.181767335456016,-26.166467075111584],[-58.18177947243916,-26.166364971969024],[-58.18124576839341,-26.166216090802912],[-58.182111554667046,-26.1639349135518],[-58.182697331600195,-26.162338739558308],[-58.18334998085331,-26.16060158929738],[-58.18401564845493,-26.158880373963058],[-58.18459378776794,-26.157494554643534],[-58.184813073694656,-26.15685859818452],[-58.18501718469473,-26.156837438437492],[-58.18519065360701,-26.1567011972839],[-58.185331597098184,-26.15634113061183],[-58.18558095866007,-26.156019989128282],[-58.185743585764925,-26.155669651956245],[-58.18696870995882,-26.152740402765872],[-58.1893772255646,-26.147269518660273],[-58.19020156529929,-26.145420039872832],[-58.19131486967247,-26.143459158901365],[-58.19201568409629,-26.142420380291654],[-58.19227645225048,-26.141908302935725],[-58.191102995556165,-26.141059712658397],[-58.18994583687123,-26.140635415206994],[-58.189228724446096,-26.140415950402605],[-58.18846271799289,-26.140854879598805],[-58.18793165804139,-26.140843262722306],[-58.18636660698816,-26.140305877476173],[-58.18325689241617,-26.139281386510696],[-58.17971793866751,-26.13814279362743],[-58.175485458075485,-26.136776193675793],[-58.17085519772924,-26.135287024186773],[-58.1673389068214,-26.134123678003178],[-58.164064481321745,-26.13306178622912],[-58.162466148319325,-26.13253531879574],[-58.15996287679499,-26.131686667630937],[-58.15674572152798,-26.130644184179296],[-58.153541760167045,-26.129665640354574],[-58.15235895660595,-26.129380734468235],[-58.150428724852716,-26.129331441360975],[-58.14810639103227,-26.129292590487907]]}},{"type":"Feature","properties":{"Rotonda Virgen del Carmen":""},"geometry":{"coordinates":[-58.18591236998431,-26.15573163082925],"type":"Point"},"id":5},{"type":"Feature","properties":{},"geometry":{"coordinates":[-58.20833068057756,-26.196754447790724],"type":"Point"}},{"type":"Feature","properties":{},"geometry":{"coordinates":[-58.201064666038874,-26.19412379223806],"type":"Point"}},{"type":"Feature","properties":{},"geometry":{"coordinates":[-58.194747464972366,-26.192062511941543],"type":"Point"}},{"type":"Feature","properties":{},"geometry":{"coordinates":[-58.192414655246466,-26.194378871553944],"type":"Point"}},{"type":"Feature","properties":{},"geometry":{"coordinates":[-58.191263370744934,-26.197230982799056],"type":"Point"}},{"type":"Feature","properties":{},"geometry":{"coordinates":[-58.18471181691031,-26.198147565401293],"type":"Point"}},{"type":"Feature","properties":{},"geometry":{"coordinates":[-58.177095759157396,-26.195819748733314],"type":"Point"}},{"type":"Feature","properties":{},"geometry":{"coordinates":[-58.17207738926096,-26.194237617987767],"type":"Point"}},{"type":"Feature","properties":{},"geometry":{"coordinates":[-58.17259071119406,-26.189176185384277],"type":"Point"}},{"type":"Feature","properties":{},"geometry":{"coordinates":[-58.17337177406215,-26.186282124586725],"type":"Point"}},{"type":"Feature","properties":{},"geometry":{"coordinates":[-58.17876473050552,-26.173663142100075],"type":"Point"}},{"type":"Feature","properties":{},"geometry":{"coordinates":[-58.182158759649795,-26.163715848415045],"type":"Point"}},{"type":"Feature","properties":{},"geometry":{"coordinates":[-58.158704861178194,-26.131391664119064],"type":"Point"}},{"type":"Feature","properties":{"Barrio 20 de Julio":""},"geometry":{"coordinates":[-58.148140653562606,-26.129316812030133],"type":"Point"},"id":16}]}