{"type":"FeatureCollection","features":[{"type":"Feature","properties":{"Lote 110":""},"geometry":{"coordinates":[-58.23954860933698,-26.172522929149295],"type":"Point"},"id":0},{"type":"Feature","properties":{},"geometry":{"coordinates":[[-58.239585388558865,-26.172544215966873],[-58.23880195135776,-26.17452840106492],[-58.23825549314401,-26.175918443407674],[-58.23799457085376,-26.17655663281267],[-58.23788546748062,-26.176848516137696],[-58.23734374046478,-26.178199493805863],[-58.236811373660814,-26.17949781676429],[-58.23655855535445,-26.180132870973225],[-58.23646427089311,-26.180369996586194],[-58.23592781034867,-26.181751515208454],[-58.235541813335715,-26.182718361603698],[-58.235357076127556,-26.183180681674067],[-58.23521814481488,-26.183514831436],[-58.23395658210964,-26.183096051253152],[-58.22972813650385,-26.181713884888673],[-58.22911194331223,-26.1832430821349],[-58.22909263454167,-26.183548705052587],[-58.229025257393275,-26.183751679767035],[-58.22818355567922,-26.18593402075723],[-58.22723427069275,-26.188305598341344],[-58.22621245218048,-26.19087917180424],[-58.22559833095093,-26.1923840843328],[-58.221723039066944,-26.19113383345985],[-58.21796362809917,-26.1899149158572],[-58.21706687316882,-26.18959350711772],[-58.21638697293517,-26.18942713208009],[-58.21604296893565,-26.189301097025172],[-58.21577148013736,-26.18930556590599],[-58.215694320377494,-26.189407576154373],[-58.2158753129102,-26.1896892748492],[-58.21585871850101,-26.19041693190885],[-58.21568436420419,-26.190965338659865],[-58.21552614928494,-26.19132565549382],[-58.21483791295509,-26.19327889782945],[-58.214376750311246,-26.19445962857948],[-58.21370090006464,-26.19612827793471],[-58.21353878082864,-26.196530428805353],[-58.213364796158274,-26.196971933304113],[-58.21328670817414,-26.197308448271798],[-58.213531741905584,-26.197593410595815],[-58.21366757084206,-26.197869622744705],[-58.21366479758984,-26.198057221064367],[-58.213485567336974,-26.19820360260769]],"type":"LineString"},"id":1},{"type":"Feature","properties":{},"geometry":{"coordinates":[[-58.2134820131441,-26.19821216178306],[-58.21325079840163,-26.198203428304424],[-58.21248978793791,-26.198037864578126],[-58.21126048593989,-26.19761054583971],[-58.208210926042725,-26.196608241326132],[-58.20617526749153,-26.195942236269246],[-58.20442631307495,-26.195390683151714],[-58.203282469532795,-26.19501221649997],[-58.20286371063442,-26.194795979962777],[-58.20260637652659,-26.19462322657502],[-58.198008228367186,-26.19310672102003],[-58.193532643578905,-26.191650107018766],[-58.19095096397271,-26.190812376940237],[-58.18976587031028,-26.190399865748716],[-58.184675862331346,-26.18878673495808],[-58.17956612986026,-26.187152453531127],[-58.17560884074936,-26.18587023382591],[-58.17519644465794,-26.186861781591595],[-58.17022799783899,-26.18524423095692],[-58.165239342265835,-26.183621195172314],[-58.164721597874944,-26.183431209741528],[-58.16434436259986,-26.184404295656194],[-58.16737723157814,-26.185382837900192]],"type":"LineString"}},{"type":"Feature","properties":{},"geometry":{"coordinates":[-58.23557547005862,-26.182720518615476],"type":"Point"}},{"type":"Feature","properties":{},"geometry":{"coordinates":[-58.22824571997303,-26.185926833370743],"type":"Point"}},{"type":"Feature","properties":{},"geometry":{"coordinates":[-58.199262278783166,-26.193546129152622],"type":"Point"}},{"type":"Feature","properties":{},"geometry":{"coordinates":[-58.205247451290674,-26.19567421887195],"type":"Point"}},{"type":"Feature","properties":{},"geometry":{"coordinates":[-58.19403547872302,-26.191858491671525],"type":"Point"}},{"type":"Feature","properties":{},"geometry":{"coordinates":[-58.17345981210168,-26.186314443225925],"type":"Point"}},{"type":"Feature","properties":{},"geometry":{"coordinates":[-58.16503866899154,-26.18355198978969],"type":"Point"}},{"type":"Feature","properties":{},"geometry":{"coordinates":[[-58.16735915279709,-26.185403055297378],[-58.168711160905886,-26.185851850207335],[-58.16880920226929,-26.1858866477598],[-58.16840456952242,-26.18688336457381],[-58.167975027188064,-26.187940956668058],[-58.16815282002415,-26.18798525804649]],"type":"LineString"}},{"type":"Feature","properties":{},"geometry":{"coordinates":[-58.168152745395645,-26.18797909509599],"type":"Point"}}]}