{"type":"FeatureCollection","features":[{"type":"Feature","properties":{"Namqom":""},"geometry":{"coordinates":[-58.22018578746105,-26.111869847701414],"type":"Point"},"id":0},{"type":"Feature","properties":{"Rotonda de la virgen ":""},"geometry":{"coordinates":[-58.185119486564474,-26.15913163804764],"type":"Point"},"id":1},{"type":"Feature","properties":{"Refsa":""},"geometry":{"coordinates":[-58.17802906974518,-26.167104227768107],"type":"Point"},"id":2},{"type":"Feature","properties":{"Aguas de Formosa":""},"geometry":{"coordinates":[-58.164997904778474,-26.187011720608872],"type":"Point"},"id":3},{"type":"Feature","properties":{"Hospital Central":""},"geometry":{"coordinates":[-58.168796483976294,-26.18824456596065],"type":"Point"},"id":4},{"type":"Feature","properties":{"Plaza San Martin":""},"geometry":{"coordinates":[-58.17347533540186,-26.18626272541347],"type":"Point"},"id":5},{"type":"Feature","properties":{"Tiro Federal":""},"geometry":{"coordinates":[-58.21089270147034,-26.12791038409013],"type":"Point"},"id":6},{"type":"Feature","properties":{"Casa de Gobierno":""},"geometry":{"coordinates":[-58.164851290007334,-26.183117431028933],"type":"Point"},"id":7},{"type":"Feature","properties":{"stroke":"#eeff00","stroke-width":2,"stroke-opacity":1},"geometry":{"coordinates":[[-58.22018158240297,-26.11183416088886],[-58.2341176896858,-26.11633929176668],[-58.23097280800212,-26.124076995833136],[-58.230588681671534,-26.125086505689225],[-58.21971253914079,-26.121606939269725],[-58.219490773215455,-26.121401942367626],[-58.210842546032566,-26.127870885702144],[-58.194958917517894,-26.139757272133167],[-58.19220649760332,-26.14260140954559],[-58.19036069251652,-26.14551204309212],[-58.189502617909866,-26.147360844309127],[-58.18574051874383,-26.1561824266712],[-58.18566267943275,-26.157335876255928],[-58.18534226641684,-26.157715372686496],[-58.18539369320149,-26.158373078497625],[-58.18509298480174,-26.15906124973671],[-58.18207360620829,-26.166507587894422],[-58.18132715700729,-26.1662652569266],[-58.181089305976116,-26.16684104068768],[-58.18077622784054,-26.16700261864242],[-58.17903069125313,-26.16736744817149],[-58.178003977401005,-26.167073501615242],[-58.17187353161839,-26.165046665103823],[-58.171563780945746,-26.165747462583184],[-58.168476314756816,-26.173583321965005],[-58.16847389872352,-26.17388347913608],[-58.16839254611935,-26.17430294639977],[-58.16670722376793,-26.178378129692334],[-58.16626908264527,-26.17944336737076],[-58.16481508340901,-26.183084229217165],[-58.16349801759722,-26.186484590091432],[-58.16498653206551,-26.186973533931763],[-58.168792554017315,-26.188229422107312],[-58.17251116366823,-26.189412827469496],[-58.17507820203993,-26.190248882646266],[-58.176272603999706,-26.187181605886416],[-58.173477417043,-26.186244432420246]],"type":"LineString"},"id":8}]}