{"type":"FeatureCollection","features":[{"type":"Feature","properties":{"Plaza Nueva Formosa":""},"geometry":{"coordinates":[-58.243415428134924,-26.198771303869748],"type":"Point"},"id":1},{"type":"Feature","properties":{"Terminal de Omnibus":""},"geometry":{"coordinates":[-58.1932116888935,-26.191524191611748],"type":"Point"},"id":6},{"type":"Feature","properties":{"Av Gutnisky":""},"geometry":{"coordinates":[-58.18953852619998,-26.19039680929228],"type":"Point"},"id":7},{"type":"Feature","properties":{"AV 25 de Mayo":""},"geometry":{"coordinates":[-58.18034195555482,-26.18740757470588],"type":"Point"},"id":8},{"type":"Feature","properties":{"Plaza San Martin":"Fin del Trayecto"},"geometry":{"coordinates":[-58.17343210026446,-26.186315338895525],"type":"Point"},"id":9},{"type":"Feature","properties":{},"geometry":{"coordinates":[[-58.173366104778324,-26.186255890269685],[-58.16355701762595,-26.18304650278278],[-58.167307029728946,-26.17364373451519],[-58.167445919703326,-26.173433390173578],[-58.16774106089771,-26.17333211313271],[-58.16834002391104,-26.17349571446224],[-58.16866988759925,-26.173783963865468],[-58.173713364522456,-26.175451133158298],[-58.17704672667608,-26.176526204468374],[-58.177558883455305,-26.17667422067246],[-58.17782798278043,-26.17675991417834],[-58.17823597207905,-26.176868978550274],[-58.1823939919899,-26.178208903944878],[-58.18679507799217,-26.179665665680936],[-58.189025999915714,-26.180382357344236],[-58.19457291989963,-26.182205226701377],[-58.198626778703954,-26.18350614737694],[-58.20347925165939,-26.185095278600286],[-58.206152889357384,-26.185967734750555],[-58.21060605060963,-26.187408822832275],[-58.21407830313527,-26.18853052149251],[-58.21469462739506,-26.18874083858556],[-58.214894281732526,-26.188717470038327],[-58.21500712983587,-26.188639574847585],[-58.21533699352497,-26.18861620627999],[-58.21568421845966,-26.188709680522074],[-58.215849150304194,-26.188849891744574],[-58.2159446371611,-26.18903683977873],[-58.216213736486225,-26.189177050607384],[-58.216439434245444,-26.189239368178583],[-58.21669985294689,-26.18931726296826],[-58.217133884115654,-26.189473052393076],[-58.217741527751755,-26.18970673613888],[-58.22200370885963,-26.19110882592539],[-58.22804540199148,-26.193063930367025],[-58.23407842809027,-26.195011218090293],[-58.23886145704918,-26.19656124144518],[-58.23963399869035,-26.19681047989088],[-58.239833653028725,-26.19690394755719],[-58.24044129666484,-26.197176561156027],[-58.24345348139228,-26.198157967498858],[-58.245146202950764,-26.19869539933704],[-58.24550210273023,-26.19885896571524],[-58.24496390408089,-26.200268736914055],[-58.2437920203448,-26.203236209891095],[-58.24266353891515,-26.2060789961467],[-58.24224686824931,-26.20714599266462],[-58.24772434151474,-26.208921708492177],[-58.249816373547134,-26.209599281433754],[-58.25054554591118,-26.20981734858251],[-58.25089277084581,-26.21001983914165],[-58.25189104253499,-26.21033915046028]],"type":"LineString"}},{"type":"Feature","properties":{"Mástil Municipal":""},"geometry":{"coordinates":[-58.163887834064866,-26.18219973863036],"type":"Point"},"id":12},{"type":"Feature","properties":{"Av Nestor Kirchner":""},"geometry":{"coordinates":[-58.1882243068565,-26.180108295888246],"type":"Point"},"id":12},{"type":"Feature","properties":{"Monumento N.Kirchner":""},"geometry":{"coordinates":[-58.19934035423947,-26.183735731517388],"type":"Point"},"id":12},{"type":"Feature","properties":{"Axion Nestor Kirchner":""},"geometry":{"coordinates":[-58.20939842376349,-26.187001813099478],"type":"Point"},"id":12},{"type":"Feature","properties":{"Rotonda A.v Circunvalación":""},"geometry":{"coordinates":[-58.21684464007639,-26.189361684686737],"type":"Point"},"id":12},{"type":"Feature","properties":{"CeMAA \"Centro de Atención Animal\"":""},"geometry":{"coordinates":[-58.23259487989759,-26.194532158901424],"type":"Point"},"id":12},{"type":"Feature","properties":{"Plaza Nueva Formosa":""},"geometry":{"coordinates":[-58.24533915632456,-26.199381362679766],"type":"Point"},"id":13},{"type":"Feature","properties":{"Nueva Formosa":""},"geometry":{"coordinates":[-58.25192626727119,-26.210398712923194],"type":"Point"},"id":13}]}