{"type":"FeatureCollection","features":[{"type":"Feature","properties":{"Nueva Pompeya":"","Villa del carmen":""},"geometry":{"coordinates":[-58.274609953777656,-26.274526506479255],"type":"Point"},"id":0},{"type":"Feature","properties":{"Nueva Pompeya":"","Villa del carmen":""},"geometry":{"coordinates":[-58.25544808480953,-26.251456496366664],"type":"Point"},"id":1},{"type":"Feature","properties":{"Aeropuerto ":"","Nueva Pompeya":""},"geometry":{"coordinates":[-58.23091109806741,-26.212782295927106],"type":"Point"},"id":2},{"type":"Feature","properties":{"Cruz del Norte":""},"geometry":{"coordinates":[-58.21282691167549,-26.198182463488465],"type":"Point"},"id":3},{"type":"Feature","properties":{"Universidad Nacional":"","Nueva Pompeya":""},"geometry":{"coordinates":[-58.199295314713126,-26.19357195872667],"type":"Point"},"id":4},{"type":"Feature","properties":{"Terminal de Omnibus":""},"geometry":{"coordinates":[-58.193716527404845,-26.191751780068657],"type":"Point"},"id":5},{"type":"Feature","properties":{"Cementerio Virgen del Carmen":""},"geometry":{"coordinates":[-58.18262408078024,-26.188156794507535],"type":"Point"},"id":6},{"type":"Feature","properties":{},"geometry":{"coordinates":[[-58.27461210429615,-26.274530958905565],[-58.274562793873756,-26.274253714917755],[-58.273854909319155,-26.27354779244977],[-58.272093313427575,-26.271592783321033],[-58.26938359412914,-26.26860515878282],[-58.26672705358837,-26.26549539520157],[-58.264406545912394,-26.262843524950988],[-58.26192607630773,-26.260071484363856],[-58.26002960481232,-26.257861690753714],[-58.25801792007904,-26.2549646664379],[-58.25615720234377,-26.252008795797245],[-58.255935066951594,-26.25167595316988],[-58.25572264102706,-26.251669463399885],[-58.255510350154864,-26.251535538118716],[-58.255452201713055,-26.251446157355517],[-58.25550140893911,-26.25121101063224],[-58.25528347731283,-26.25082422613614],[-58.25505395398551,-26.25048991931962],[-58.25434779514488,-26.249365594078448],[-58.252276903469934,-26.246200801598867],[-58.250134776202884,-26.242879551062707],[-58.248511270258476,-26.240308017985903],[-58.2469030282748,-26.237804299683496],[-58.245085832773384,-26.235080789893992],[-58.242748069483056,-26.231410499065774],[-58.24082775107931,-26.228473003505115],[-58.238475892640935,-26.224942500887536],[-58.23625427391083,-26.221454599476196],[-58.23417678721091,-26.218210489065328],[-58.23182471209313,-26.2146315056698],[-58.23134980942821,-26.21381340705024],[-58.23137303291696,-26.21340499473449],[-58.23128949583227,-26.213111851114355],[-58.231027442726344,-26.212940226667847],[-58.23091114584196,-26.212761405727868],[-58.2307539730576,-26.212390195961184],[-58.230271592506824,-26.212111996385914],[-58.22965038228941,-26.211267830901868],[-58.22764529303306,-26.208145588880036],[-58.22546236857151,-26.204762979621208],[-58.223983298017046,-26.202515569410167],[-58.223046321516165,-26.201579727006134],[-58.22215697219197,-26.20099680282226],[-58.22109950835804,-26.200544001042864],[-58.220148900065496,-26.200151878906794],[-58.218003741827175,-26.19947340710432],[-58.214020031701935,-26.198202277012278],[-58.21346312560368,-26.198276783743815],[-58.213095554273906,-26.198203806761526],[-58.21283112078885,-26.198154350823913],[-58.212127443418495,-26.197866194136743],[-58.21185713915837,-26.19751529006689],[-58.21032566038765,-26.196990941797182],[-58.206998444285816,-26.195916730252996],[-58.20267436264642,-26.194499755930053],[-58.19928931674558,-26.19353135864136],[-58.19375232064077,-26.19172894372089],[-58.189266463745994,-26.190233063027797],[-58.182599156134074,-26.188128845866487],[-58.175560061015304,-26.18582232942093],[-58.17516547006409,-26.186811535915446],[-58.173479216304926,-26.18629155739285]],"type":"LineString"}},{"type":"Feature","properties":{"Hospital Central":""},"geometry":{"coordinates":[-58.16836059443925,-26.189140138759775],"type":"Point"},"id":8},{"type":"Feature","properties":{"Nueva Pompeya":"","Villa del carmen":""},"geometry":{"coordinates":[-58.274609953777656,-26.274526506479255],"type":"Point"},"id":0},{"type":"Feature","properties":{"Nueva Pompeya":"","Villa del carmen":""},"geometry":{"coordinates":[-58.25544808480953,-26.251456496366664],"type":"Point"},"id":1},{"type":"Feature","properties":{"Aeropuerto ":"","Nueva Pompeya":""},"geometry":{"coordinates":[-58.23091109806741,-26.212782295927106],"type":"Point"},"id":2},{"type":"Feature","properties":{"Cruz del Norte":""},"geometry":{"coordinates":[-58.21282691167549,-26.198182463488465],"type":"Point"},"id":3},{"type":"Feature","properties":{"Universidad Nacional":"","Nueva Pompeya":""},"geometry":{"coordinates":[-58.199295314713126,-26.19357195872667],"type":"Point"},"id":4},{"type":"Feature","properties":{"Terminal de Omnibus":""},"geometry":{"coordinates":[-58.193716527404845,-26.191751780068657],"type":"Point"},"id":5},{"type":"Feature","properties":{"Cementerio Virgen del Carmen":""},"geometry":{"coordinates":[-58.18262408078024,-26.188156794507535],"type":"Point"},"id":6},{"type":"Feature","properties":{"Plaza San Martin":""},"geometry":{"coordinates":[-58.173462806057884,-26.186307119005903],"type":"Point"},"id":16},{"type":"Feature","properties":{},"geometry":{"coordinates":[[-58.27461210429615,-26.274530958905565],[-58.274562793873756,-26.274253714917755],[-58.273854909319155,-26.27354779244977],[-58.272093313427575,-26.271592783321033],[-58.26938359412914,-26.26860515878282],[-58.26672705358837,-26.26549539520157],[-58.264406545912394,-26.262843524950988],[-58.26192607630773,-26.260071484363856],[-58.26002960481232,-26.257861690753714],[-58.25801792007904,-26.2549646664379],[-58.25615720234377,-26.252008795797245],[-58.255935066951594,-26.25167595316988],[-58.25572264102706,-26.251669463399885],[-58.255510350154864,-26.251535538118716],[-58.255452201713055,-26.251446157355517],[-58.25550140893911,-26.25121101063224],[-58.25528347731283,-26.25082422613614],[-58.25505395398551,-26.25048991931962],[-58.25434779514488,-26.249365594078448],[-58.252276903469934,-26.246200801598867],[-58.250134776202884,-26.242879551062707],[-58.248511270258476,-26.240308017985903],[-58.2469030282748,-26.237804299683496],[-58.245085832773384,-26.235080789893992],[-58.242748069483056,-26.231410499065774],[-58.24082775107931,-26.228473003505115],[-58.238475892640935,-26.224942500887536],[-58.23625427391083,-26.221454599476196],[-58.23417678721091,-26.218210489065328],[-58.23182471209313,-26.2146315056698],[-58.23134980942821,-26.21381340705024],[-58.23137303291696,-26.21340499473449],[-58.23128949583227,-26.213111851114355],[-58.231027442726344,-26.212940226667847],[-58.23091114584196,-26.212761405727868],[-58.2307539730576,-26.212390195961184],[-58.230271592506824,-26.212111996385914],[-58.22965038228941,-26.211267830901868],[-58.22764529303306,-26.208145588880036],[-58.22546236857151,-26.204762979621208],[-58.223983298017046,-26.202515569410167],[-58.223046321516165,-26.201579727006134],[-58.22215697219197,-26.20099680282226],[-58.22109950835804,-26.200544001042864],[-58.220148900065496,-26.200151878906794],[-58.218003741827175,-26.19947340710432],[-58.214020031701935,-26.198202277012278],[-58.21346312560368,-26.198276783743815],[-58.213095554273906,-26.198203806761526],[-58.21283112078885,-26.198154350823913],[-58.212127443418495,-26.197866194136743],[-58.21185713915837,-26.19751529006689],[-58.21032566038765,-26.196990941797182],[-58.206998444285816,-26.195916730252996],[-58.20267436264642,-26.194499755930053],[-58.19928931674558,-26.19353135864136],[-58.19375232064077,-26.19172894372089],[-58.189266463745994,-26.190233063027797],[-58.182599156134074,-26.188128845866487],[-58.175560061015304,-26.18582232942093],[-58.17516547006409,-26.186811535915446],[-58.173479216304926,-26.18629155739285]],"type":"LineString"}},{"type":"Feature","properties":{},"geometry":{"coordinates":[[-58.17343817866792,-26.186243373808622],[-58.16698099211351,-26.184139486430084],[-58.16533718846499,-26.188204433770103],[-58.168348737133186,-26.189127753842406]],"type":"LineString"}}]}