{"type":"FeatureCollection","features":[{"type":"Feature","properties":{"Hospital Central":""},"geometry":{"coordinates":[-58.16836059443925,-26.189140138759775],"type":"Point"},"id":0},{"type":"Feature","properties":{"Cementerio Virgen del Carmen":""},"geometry":{"coordinates":[-58.18275926830016,-26.187810023951222],"type":"Point"},"id":1},{"type":"Feature","properties":{"Terminal de Omnibus":""},"geometry":{"coordinates":[-58.193895271361285,-26.1913306235056],"type":"Point"},"id":2},{"type":"Feature","properties":{"Universidad Nacional":""},"geometry":{"coordinates":[-58.19970388344075,-26.193196700142302],"type":"Point"},"id":3},{"type":"Feature","properties":{"Cruz del Norte":""},"geometry":{"coordinates":[-58.213099973598105,-26.19743451684004],"type":"Point"},"id":4},{"type":"Feature","properties":{"Aeropuerto":""},"geometry":{"coordinates":[-58.2318538327859,-26.212769186563087],"type":"Point"},"id":5},{"type":"Feature","properties":{"Villa del carmen":""},"geometry":{"coordinates":[-58.256254468940554,-26.251330886231486],"type":"Point"},"id":6},{"type":"Feature","properties":{"Nueva Pompeya":""},"geometry":{"coordinates":[-58.27528691075754,-26.27447859360602],"type":"Point"},"id":7},{"type":"Feature","properties":{},"geometry":{"coordinates":[[-58.16834754311964,-26.189128067588705],[-58.16922511056322,-26.189482531495116],[-58.173274915456886,-26.190803043155057],[-58.17465578114515,-26.191260645235154],[-58.17507683059459,-26.19025239443853],[-58.1768162920028,-26.18592644811372],[-58.17908654369404,-26.186653830055597],[-58.18276898269889,-26.187816822529328],[-58.19147278345001,-26.1907079106906],[-58.191804788902445,-26.19070626433009],[-58.19388906732323,-26.19132566004047],[-58.19971125636101,-26.193178003198398],[-58.20040665364168,-26.19347637061759],[-58.20305542126616,-26.1943327864579],[-58.206306031678906,-26.195356192369253],[-58.21190965560258,-26.197182310623987],[-58.21216869296552,-26.19719945702888],[-58.21309739556297,-26.1974490486122],[-58.213634485247255,-26.197678374832826],[-58.21408506813165,-26.198118597364605],[-58.216131006046055,-26.198752461867826],[-58.218905821765745,-26.199642744490482],[-58.22092021477607,-26.200336684053454],[-58.2223229464166,-26.200930607365187],[-58.223110691429056,-26.20138867859974],[-58.22418813089823,-26.20234676057028],[-58.22752892265589,-26.20747641988499],[-58.22941944604635,-26.2103854048449],[-58.23043661766005,-26.211943269779113],[-58.23085785489722,-26.212234010093248],[-58.231182328245154,-26.21234923456531],[-58.231584678487096,-26.21233600884564],[-58.23177729553838,-26.212543566723383],[-58.23185089419016,-26.212748841054648],[-58.23161261838071,-26.21324003628981],[-58.23159857404454,-26.213720675385048],[-58.23272909941136,-26.215487146546643],[-58.23508674871387,-26.219040045275456],[-58.237516162505486,-26.22280944615475],[-58.24053635160918,-26.227501435695316],[-58.24299558068451,-26.231283053181016],[-58.24550864255205,-26.235162865289674],[-58.248491026202714,-26.239734590844606],[-58.25004934588607,-26.24214448947145],[-58.25229812950012,-26.24559835624067],[-58.255659513960836,-26.250917617510844],[-58.2557638162487,-26.251046106201493],[-58.25603510417942,-26.251102271644115],[-58.25623491344645,-26.251329636322666],[-58.25618775112858,-26.251582868088796],[-58.257100471636306,-26.253034459852366],[-58.25982911603684,-26.257190891089394],[-58.26073463863858,-26.258405094421562],[-58.26194030682508,-26.25980486475911],[-58.26328215352231,-26.26133750270811],[-58.266785267506236,-26.265238431779466],[-58.269810314426536,-26.268615079369738],[-58.27245314469515,-26.27159123870483],[-58.274639719765204,-26.274096319377684],[-58.27490375571584,-26.274233894835007],[-58.27528037460479,-26.274484622625806]],"type":"LineString"}}]}