{"type":"FeatureCollection","features":[{"type":"Feature","properties":{"nombre":"Línea F - Ida"},"geometry":{"type":"LineString","coordinates":[[-58.148145754113926,-26.129256044124126],[-58.14969991097347,-26.129229772360993],[-58.15053641204875,-26.129238820712743],[-58.15077829187784,-26.129238820712743],[-58.150858918487216,-26.12906690191643],[-58.15131244316676,-26.128976418237613],[-58.1532826230046,-26.128985703725974],[-58.15544946313943,-26.129619087952236],[-58.15808998605581,-26.130460580916278],[-58.15986164527766,-26.1310185949606],[-58.159962428539615,-26.131253848265125],[-58.16650325517507,-26.13327867404361],[-58.17564713208496,-26.136059951396085],[-58.18192474732544,-26.13793762738961],[-58.18925937948433,-26.14013038551313],[-58.19079205500444,-26.140589022035208],[-58.19237996207535,-26.141617848761676],[-58.19217302855661,-26.142034353449013],[-58.19063702736679,-26.144941139796508],[-58.188922640135104,-26.14873316590537],[-58.18605789107764,-26.155337189594505],[-58.18589675959586,-26.155768062959893],[-58.18578723906215,-26.156036168602157],[-58.18577728264961,-26.156625998848483],[-58.18579719547414,-26.157046027660215],[-58.18573745700104,-26.157323067113126],[-58.185608023642786,-26.15751967535813],[-58.18530933127714,-26.15774309341515],[-58.18532924425392,-26.158261421815908],[-58.18319881908299,-26.163496356466858],[-58.18198530773178,-26.1665138071737],[-58.18161799639624,-26.167508399624793],[-58.18180716822816,-26.168044556324183],[-58.18182326394681,-26.16836494018655],[-58.18028002005808,-26.17237709020582],[-58.18008812425033,-26.172543633546155],[-58.17965004211442,-26.17242747095372],[-58.1754893829563,-26.18290551263211],[-58.17501147512685,-26.184129572474696],[-58.176036985582,-26.184495894247974],[-58.175140908485105,-26.186774211123165],[-58.16361409967894,-26.18306272797838],[-58.16240545780822,-26.186097259699018],[-58.16909706135691,-26.188352868988282],[-58.191649760059406,-26.19569406279112],[-58.19338886789261,-26.19151929656207],[-58.19359198989365,-26.191247414229125],[-58.20508897051508,-26.194930288474325],[-58.21139319504152,-26.19698308276277],[-58.21215405120233,-26.197190861521243],[-58.21346900913208,-26.197598997290243],[-58.21370884422693,-26.197769671823735],[-58.213700574050975,-26.198125861349084],[-58.21339457755113,-26.19831137629567],[-58.21274123367422,-26.198111020140935],[-58.21244350735029,-26.198066496504126],[-58.2063693887704,-26.213043972033738]]}},{"type":"Feature","properties":{"nombre":"Parada - 20 De Julio"},"geometry":{"type":"Point","coordinates":[-58.148030228971805,-26.129322354648764]}},{"type":"Feature","properties":{"nombre":"Parada - Plaza Antenor Gaúna"},"geometry":{"type":"Point","coordinates":[-58.15953220274321,-26.130926295759615]}},{"type":"Feature","properties":{"nombre":"Parada - Rotonda Virgen del Carmen"},"geometry":{"type":"Point","coordinates":[-58.18591236998431,-26.15573163082925]}},{"type":"Feature","properties":{"nombre":"Parada - Plaza Temática"},"geometry":{"type":"Point","coordinates":[-58.17920567972379,-26.173634909724434]}},{"type":"Feature","properties":{"nombre":"Parada - Teatro de la Ciudad"},"geometry":{"type":"Point","coordinates":[-58.17516502446378,-26.184184723689853]}},{"type":"Feature","properties":{"nombre":"Parada - Hospital Central"},"geometry":{"type":"Point","coordinates":[-58.16868560706645,-26.188230401102928]}},{"type":"Feature","properties":{},"geometry":{"coordinates":[-58.175708519897555,-26.190495890874622],"type":"Point"}},{"type":"Feature","properties":{},"geometry":{"coordinates":[-58.18509019499149,-26.193598035581253],"type":"Point"}},{"type":"Feature","properties":{},"geometry":{"coordinates":[-58.1919205456669,-26.194886821349364],"type":"Point"}},{"type":"Feature","properties":{},"geometry":{"coordinates":[-58.19563973610211,-26.19188046712985],"type":"Point"}},{"type":"Feature","properties":{},"geometry":{"coordinates":[-58.19968896532515,-26.19319125652494],"type":"Point"}},{"type":"Feature","properties":{},"geometry":{"coordinates":[-58.205497858011015,-26.19504357979571],"type":"Point"}},{"type":"Feature","properties":{},"geometry":{"coordinates":[-58.209530764163304,-26.20528170267383],"type":"Point"}},{"type":"Feature","properties":{"Barrio San Jorge":""},"geometry":{"coordinates":[-58.20638730716588,-26.213034959600407],"type":"Point"},"id":14}]}