{"type":"FeatureCollection","features":[{"type":"Feature","properties":{"Nueva Formosa":""},"geometry":{"coordinates":[-58.251780820716704,-26.210360249024923],"type":"Point"},"id":0},{"type":"Feature","properties":{"Plaza Nueva Formosa":""},"geometry":{"coordinates":[-58.243415428134924,-26.198771303869748],"type":"Point"},"id":1},{"type":"Feature","properties":{"CeMAA \"Centro de Atención Animal\"":""},"geometry":{"coordinates":[-58.23250627489844,-26.19462718114726],"type":"Point"},"id":2},{"type":"Feature","properties":{"Rotonda Av. Circunvalación":""},"geometry":{"coordinates":[-58.21688057203566,-26.189531012911416],"type":"Point"},"id":3},{"type":"Feature","properties":{"Club Aguará":""},"geometry":{"coordinates":[-58.206391245336974,-26.18637219619191],"type":"Point"},"id":4},{"type":"Feature","properties":{"Estadio Cincuentenario":""},"geometry":{"coordinates":[-58.1993957450444,-26.184144150005416],"type":"Point"},"id":5},{"type":"Feature","properties":{"Terminal de Omnibus":""},"geometry":{"coordinates":[-58.1932116888935,-26.191524191611748],"type":"Point"},"id":6},{"type":"Feature","properties":{"Av Gutnisky":""},"geometry":{"coordinates":[-58.18953852619998,-26.19039680929228],"type":"Point"},"id":7},{"type":"Feature","properties":{"AV 25 de Mayo":""},"geometry":{"coordinates":[-58.18034195555482,-26.18740757470588],"type":"Point"},"id":8},{"type":"Feature","properties":{"Plaza San Martin":"Fin del Trayecto"},"geometry":{"coordinates":[-58.17343210026446,-26.186315338895525],"type":"Point"},"id":9},{"type":"Feature","properties":{},"geometry":{"coordinates":[[-58.25174068908568,-26.21040834712413],[-58.25097628859889,-26.21017974576114],[-58.250675161135234,-26.21001348994249],[-58.25025049419787,-26.209861088567195],[-58.25004202133782,-26.209805669835127],[-58.24970228778845,-26.209902652598565],[-58.24216637337648,-26.20747113047488],[-58.2417030974983,-26.20848947418243],[-58.23985000540996,-26.207893714414183],[-58.24079199772997,-26.20551064345983],[-58.24148690726258,-26.20573232640649],[-58.24392681295788,-26.19969823959159],[-58.243177854904914,-26.199448833320126],[-58.24360252232596,-26.19830571640096],[-58.24049950446516,-26.197331970387978],[-58.23972727307465,-26.19699026234862],[-58.23189917123686,-26.194427416050978],[-58.22559437173058,-26.192358114327938],[-58.21675265218889,-26.189510240074256],[-58.215959939066764,-26.18927598536449],[-58.215548741554755,-26.189340156544446],[-58.21508390958367,-26.18930807095891],[-58.21463695576587,-26.18905138595875],[-58.20587664256699,-26.1862117578604],[-58.19681253128411,-26.18331275758019],[-58.19352385916925,-26.191359499184692],[-58.19331228892504,-26.191587315669928],[-58.189355915743675,-26.190315328636117],[-58.183823352641696,-26.188530734295867],[-58.18334731959264,-26.18839783791364],[-58.17896781554305,-26.186973938586867],[-58.1755826824631,-26.185891761005685],[-58.17517012048724,-26.18685053070473],[-58.173371773414004,-26.1862714727206]],"type":"LineString"}}]}