{"type":"FeatureCollection","features":[{"type":"Feature","properties":{"Lisabel Rivira":""},"geometry":{"coordinates":[-58.22407270906277,-26.1674967539113],"type":"Point"},"id":0},{"type":"Feature","properties":{"Centro de Detencion San Antonio":""},"geometry":{"coordinates":[-58.21325797349968,-26.168809580046066],"type":"Point"},"id":1},{"type":"Feature","properties":{"Club Deportivo La Paz":""},"geometry":{"coordinates":[-58.20158563041845,-26.168068896016727],"type":"Point"},"id":2},{"type":"Feature","properties":{"Hospital de Alta Complejidad \"Pte. Juan Domingo Perón”":""},"geometry":{"coordinates":[-58.18704212852309,-26.18027838105631],"type":"Point"},"id":3},{"type":"Feature","properties":{"Cementerio Nuestra Sra. del Carmen":""},"geometry":{"coordinates":[-58.182623872628625,-26.188159628800037],"type":"Point"},"id":4},{"type":"Feature","properties":{"Plaza San Martin":""},"geometry":{"coordinates":[-58.173473467513844,-26.186272583931576],"type":"Point"},"id":5},{"type":"Feature","properties":{"Planta termoelectrica generadora APR ENERGY FORMOSA":""},"geometry":{"coordinates":[-58.21055376636957,-26.175576963638697],"type":"Point"},"id":6},{"type":"Feature","properties":{},"geometry":{"coordinates":[[-58.22406722914572,-26.167474875653028],[-58.22236242278713,-26.16689107853952],[-58.21967562487107,-26.16603633943881],[-58.219730892908046,-26.16594094677673],[-58.21954383186116,-26.165887526852025],[-58.217214564265106,-26.165151387158325],[-58.21497438705178,-26.164441613519934],[-58.21488085652834,-26.1646781902203],[-58.21409582205297,-26.166632705337392],[-58.21349039450183,-26.168175079276978],[-58.21325556512939,-26.168797479062796],[-58.213085509632364,-26.169182855498704],[-58.21257534328922,-26.17044199730259],[-58.21191212742836,-26.17208629493929],[-58.21126080797136,-26.173751274047518],[-58.21053382475695,-26.175547041296426],[-58.20981409873485,-26.17729063970191],[-58.20969505988688,-26.177431807070683],[-58.209699599943846,-26.17772823679882],[-58.2099844429015,-26.17818607457444]],"type":"LineString"}},{"type":"Feature","properties":{},"geometry":{"coordinates":[[-58.20998442338019,-26.178185770661656],[-58.210152618647754,-26.17851747886452],[-58.2101495380431,-26.178958182302935],[-58.21023732271706,-26.179177452432903],[-58.21032091697127,-26.179352777710115],[-58.21029165541327,-26.17941448829763],[-58.21024776307584,-26.17946963390184],[-58.21016875686989,-26.179482763804153],[-58.21008243527422,-26.179452565027205],[-58.209990261367125,-26.179385602494555],[-58.20991564439427,-26.179264807240713],[-58.2095674315196,-26.17904291050457],[-58.20949574070248,-26.17896413077346],[-58.20939186217254,-26.178869595026278],[-58.209208978074784,-26.178549222815704],[-58.2089895164666,-26.178180269022604],[-58.2087144583749,-26.17770300340038],[-58.20841160263076,-26.177165984133218],[-58.20811021063396,-26.17663946595735],[-58.207754574730586,-26.17600911743483],[-58.20740085398556,-26.175331494563338],[-58.20715944955161,-26.174848297950696],[-58.206820026567954,-26.174249556045453],[-58.20617961749572,-26.17310472589238],[-58.20546613439282,-26.172094356846834],[-58.20477978341545,-26.171283591901656],[-58.20382757201253,-26.170307284564117],[-58.202913322662184,-26.16939427722439],[-58.202275797725676,-26.168722274114593],[-58.20159751264599,-26.16805994654853],[-58.200737425203044,-26.167132409843575],[-58.19974983310745,-26.16603460819519],[-58.19897666775522,-26.165211626697534],[-58.19813435053753,-26.164295315433762],[-58.19714244732326,-26.16320197787052],[-58.19616101665767,-26.162250333028034],[-58.19551413209409,-26.161822356363118]],"type":"LineString"}},{"type":"Feature","properties":{},"geometry":{"coordinates":[[-58.19551420138198,-26.161822223660643],[-58.19499475425489,-26.161508859920495],[-58.19479505974682,-26.16140004377001],[-58.19468631723187,-26.161426662618666],[-58.1946072317664,-26.161453281459863],[-58.19456151048183,-26.16149986441947],[-58.194541739115266,-26.161560865884397],[-58.19438309099337,-26.161936220867318],[-58.19422676885638,-26.162343344722352],[-58.19407971945668,-26.162712678058305],[-58.19343492807411,-26.1642928402676],[-58.193412997195765,-26.1644018576025],[-58.1933961272897,-26.164553270398393],[-58.19327297914634,-26.164949743232235],[-58.19318694262296,-26.165160205976463],[-58.19305028664377,-26.1654933015516],[-58.1928207455523,-26.166071480664456],[-58.19259131623643,-26.166665002796556],[-58.19234331513478,-26.167303943616552],[-58.192070013170294,-26.16800182222861],[-58.191837213064076,-26.16856473263629],[-58.19160439788455,-26.16916284932669],[-58.19135133840237,-26.16976089874317],[-58.19113868289537,-26.170295504911195],[-58.19091429968964,-26.170837481402344],[-58.19085773003701,-26.170974701721512],[-58.19079362439203,-26.171054946004816],[-58.19066732628035,-26.171241808263936],[-58.19061840355131,-26.171393212179282],[-58.19033689175174,-26.172043482528466],[-58.190110832708655,-26.172620322317236],[-58.18992527993531,-26.17308055765644],[-58.18966885526676,-26.17372247306387],[-58.18943440218591,-26.174314248676815],[-58.18917286695374,-26.174962023336278],[-58.188908631966896,-26.17563059246899],[-58.188671219290796,-26.176206423438963],[-58.18841817823801,-26.176805821576423],[-58.18821907706565,-26.177319125182123],[-58.18803013643915,-26.17780493582105],[-58.18781926730621,-26.178327241716914],[-58.18762526671003,-26.178782942428015],[-58.18746331102818,-26.179200805191783],[-58.18724738283747,-26.17976853233717],[-58.18711377245489,-26.18003363159262],[-58.187039544866266,-26.180269803800158],[-58.183757812920106,-26.188458705963356],[-58.183404052036664,-26.188343631597526],[-58.182767491333095,-26.188161193414132],[-58.18263188299461,-26.188125480600824],[-58.18184186326806,-26.187855712975228],[-58.17555843191609,-26.185811418337515],[-58.175161063535285,-26.18680171741044],[-58.17347721029002,-26.18625443233043]],"type":"LineString"}}]}