{"type":"FeatureCollection","features":[{"type":"Feature","properties":{"Namqom":""},"geometry":{"coordinates":[-58.22018578746105,-26.111869847701414],"type":"Point"},"id":0},{"type":"Feature","properties":{"Plaza San Martin":""},"geometry":{"coordinates":[-58.17347533540186,-26.18626272541347],"type":"Point"},"id":1},{"type":"Feature","properties":{"Predio Federal":""},"geometry":{"coordinates":[-58.16363095966737,-26.182858453157728],"type":"Point"},"id":2},{"type":"Feature","properties":{},"geometry":{"coordinates":[-58.16482843310227,-26.17990199455646],"type":"Point"},"id":3},{"type":"Feature","properties":{"Refsa":""},"geometry":{"coordinates":[-58.1779759185345,-26.166959904203935],"type":"Point"},"id":4},{"type":"Feature","properties":{"Rotonda de la virgen ":""},"geometry":{"coordinates":[-58.18408312770681,-26.158770690791606],"type":"Point"},"id":5},{"type":"Feature","properties":{"Tiro Federal":""},"geometry":{"coordinates":[-58.210790575674196,-26.12776846958912],"type":"Point"},"id":6},{"type":"Feature","properties":{"stroke":"#c48936","stroke-width":2,"stroke-opacity":1},"geometry":{"coordinates":[[-58.173468848578764,-26.186236269639238],[-58.16360209483581,-26.183014549464886],[-58.163639771633456,-26.182859019903155],[-58.16483460545068,-26.179876186674193],[-58.16734694046872,-26.173610358296727],[-58.16748934924921,-26.173425147484352],[-58.16778856495128,-26.173354816858378],[-58.168301506153725,-26.173540233871726],[-58.16868621205643,-26.17383434301268],[-58.16943425131065,-26.174064514866004],[-58.169712094462284,-26.174128451411633],[-58.17124339995665,-26.170245200654215],[-58.169852028150274,-26.169854373337216],[-58.17179569601565,-26.164916495961357],[-58.17796658929268,-26.166918365357326],[-58.178916988650954,-26.167234598711396],[-58.17949053122692,-26.167158337857195],[-58.180552647109664,-26.16694862024851],[-58.180935008827674,-26.166900957102982],[-58.182373723164446,-26.1632073973784],[-58.18352702215208,-26.160229497716166],[-58.18407854842249,-26.158762048967468],[-58.18488612569942,-26.15683202205551],[-58.185092505761205,-26.156873851529248],[-58.18575824789714,-26.15578030469961],[-58.186377387054335,-26.1541847842674],[-58.18797344423548,-26.15048238592101],[-58.18982683371195,-26.14630858407486],[-58.19049826265629,-26.14483445520495],[-58.19184306177162,-26.142802511066208],[-58.19203507962689,-26.142461303450936],[-58.19234132100962,-26.141869640750173],[-58.193213443208265,-26.141218210671532],[-58.194385149367946,-26.140088658156934],[-58.197274474451575,-26.13785939665356],[-58.2012090001454,-26.134906920028826],[-58.20599015540226,-26.131344765807796],[-58.21079302094948,-26.12776587467645],[-58.222816983355216,-26.118833219053514],[-58.2229377756851,-26.119000076426474],[-58.22322662054343,-26.11912650725165],[-58.23177550946282,-26.12189154212888],[-58.23397848871518,-26.116387976712367],[-58.230361471017275,-26.11522729022004],[-58.22877143955181,-26.114693260097468],[-58.22733919764461,-26.114175576939772],[-58.22479643042263,-26.113391047778016],[-58.22136147492262,-26.11231751667882],[-58.22019019234581,-26.11187611484314]],"type":"LineString"},"id":7}]}